[
  {
    "CCSDS_OMM_VERS": "3.0",
    "COMMENT": "GENERATED VIA SPACE-TRACK.ORG API",
    "CREATION_DATE": "2026-02-19T17:59:09",
    "ORIGINATOR": "18 SPCS",
    "OBJECT_NAME": "STARLINK-5099",
    "OBJECT_ID": "2022-125AX",
    "CENTER_NAME": "EARTH",
    "REF_FRAME": "TEME",
    "TIME_SYSTEM": "UTC",
    "MEAN_ELEMENT_THEORY": "SGP4",
    "EPOCH": "2026-02-19T15:25:20.849952",
    "MEAN_MOTION": "15.08834439",
    "ECCENTRICITY": "0.00013840",
    "INCLINATION": "53.2175",
    "RA_OF_ASC_NODE": "294.7459",
    "ARG_OF_PERICENTER": "91.5441",
    "MEAN_ANOMALY": "268.5709",
    "EPHEMERIS_TYPE": "0",
    "CLASSIFICATION_TYPE": "U",
    "NORAD_CAT_ID": "54009",
    "ELEMENT_SET_NO": "999",
    "REV_AT_EPOCH": "18674",
    "BSTAR": "0.00004313534600",
    "MEAN_MOTION_DOT": "0.00000399",
    "MEAN_MOTION_DDOT": "0.0000000000000",
    "SEMIMAJOR_AXIS": "6917.897",
    "PERIOD": "95.438",
    "APOAPSIS": "540.720",
    "PERIAPSIS": "538.805",
    "OBJECT_TYPE": "PAYLOAD",
    "RCS_SIZE": "LARGE",
    "COUNTRY_CODE": "US",
    "LAUNCH_DATE": "2022-10-05",
    "SITE": "AFWTR",
    "DECAY_DATE": null,
    "FILE": "5039972",
    "GP_ID": "313176623",
    "TLE_LINE0": "0 STARLINK-5099",
    "TLE_LINE1": "1 54009U 22125AX  26050.64260243  .00000399  00000-0  43135-4 0  9991",
    "TLE_LINE2": "2 54009  53.2175 294.7459 0001384  91.5441 268.5709 15.08834439186741"
  },
  {
    "CCSDS_OMM_VERS": "3.0",
    "COMMENT": "GENERATED VIA SPACE-TRACK.ORG API",
    "CREATION_DATE": "2026-02-19T17:59:09",
    "ORIGINATOR": "18 SPCS",
    "OBJECT_NAME": "STARLINK-31726",
    "OBJECT_ID": "2024-090K",
    "CENTER_NAME": "EARTH",
    "REF_FRAME": "TEME",
    "TIME_SYSTEM": "UTC",
    "MEAN_ELEMENT_THEORY": "SGP4",
    "EPOCH": "2026-02-19T15:25:18.590592",
    "MEAN_MOTION": "15.27587133",
    "ECCENTRICITY": "0.00012899",
    "INCLINATION": "43.0026",
    "RA_OF_ASC_NODE": "285.1132",
    "ARG_OF_PERICENTER": "271.6268",
    "MEAN_ANOMALY": "88.4436",
    "EPHEMERIS_TYPE": "0",
    "CLASSIFICATION_TYPE": "U",
    "NORAD_CAT_ID": "59739",
    "ELEMENT_SET_NO": "999",
    "REV_AT_EPOCH": "10068",
    "BSTAR": "0.00004411252400",
    "MEAN_MOTION_DOT": "0.00000952",
    "MEAN_MOTION_DDOT": "0.0000000000000",
    "SEMIMAJOR_AXIS": "6861.165",
    "PERIOD": "94.266",
    "APOAPSIS": "483.915",
    "PERIAPSIS": "482.145",
    "OBJECT_TYPE": "PAYLOAD",
    "RCS_SIZE": "LARGE",
    "COUNTRY_CODE": "US",
    "LAUNCH_DATE": "2024-05-13",
    "SITE": "AFETR",
    "DECAY_DATE": null,
    "FILE": "5039972",
    "GP_ID": "313180342",
    "TLE_LINE0": "0 STARLINK-31726",
    "TLE_LINE1": "1 59739U 24090K   26050.64257628  .00000952  00000-0  44113-4 0  9994",
    "TLE_LINE2": "2 59739  43.0026 285.1132 0001290 271.6268  88.4436 15.27587133100686"
  },
  {
    "CCSDS_OMM_VERS": "3.0",
    "COMMENT": "GENERATED VIA SPACE-TRACK.ORG API",
    "CREATION_DATE": "2026-02-19T17:59:09",
    "ORIGINATOR": "18 SPCS",
    "OBJECT_NAME": "IONOSFERA-M 02",
    "OBJECT_ID": "2024-199B",
    "CENTER_NAME": "EARTH",
    "REF_FRAME": "TEME",
    "TIME_SYSTEM": "UTC",
    "MEAN_ELEMENT_THEORY": "SGP4",
    "EPOCH": "2026-02-19T15:25:08.844672",
    "MEAN_MOTION": "14.22733875",
    "ECCENTRICITY": "0.00006786",
    "INCLINATION": "98.7352",
    "RA_OF_ASC_NODE": "284.8534",
    "ARG_OF_PERICENTER": "31.2874",
    "MEAN_ANOMALY": "328.8344",
    "EPHEMERIS_TYPE": "0",
    "CLASSIFICATION_TYPE": "U",
    "NORAD_CAT_ID": "61736",
    "ELEMENT_SET_NO": "999",
    "REV_AT_EPOCH": "11411",
    "BSTAR": "0.00004073709600",
    "MEAN_MOTION_DOT": "0.00000047",
    "MEAN_MOTION_DDOT": "0.0000000000000",
    "SEMIMAJOR_AXIS": "7194.259",
    "PERIOD": "101.214",
    "APOAPSIS": "816.612",
    "PERIAPSIS": "815.636",
    "OBJECT_TYPE": "PAYLOAD",
    "RCS_SIZE": "LARGE",
    "COUNTRY_CODE": "CIS",
    "LAUNCH_DATE": "2024-11-04",
    "SITE": "VOSTO",
    "DECAY_DATE": null,
    "FILE": "5039972",
    "GP_ID": "313182174",
    "TLE_LINE0": "0 IONOSFERA-M 02",
    "TLE_LINE1": "1 61736U 24199B   26050.64246348  .00000047  00000-0  40737-4 0  9994",
    "TLE_LINE2": "2 61736  98.7352 284.8534 0000679  31.2874 328.8344 14.22733875114112"
  },
  {
    "CCSDS_OMM_VERS": "3.0",
    "COMMENT": "GENERATED VIA SPACE-TRACK.ORG API",
    "CREATION_DATE": "2026-02-19T17:59:09",
    "ORIGINATOR": "18 SPCS",
    "OBJECT_NAME": "STARLINK-31141",
    "OBJECT_ID": "2024-012S",
    "CENTER_NAME": "EARTH",
    "REF_FRAME": "TEME",
    "TIME_SYSTEM": "UTC",
    "MEAN_ELEMENT_THEORY": "SGP4",
    "EPOCH": "2026-02-19T15:25:00.316128",
    "MEAN_MOTION": "15.27577041",
    "ECCENTRICITY": "0.00013927",
    "INCLINATION": "43.0009",
    "RA_OF_ASC_NODE": "267.3583",
    "ARG_OF_PERICENTER": "267.1102",
    "MEAN_ANOMALY": "92.9591",
    "EPHEMERIS_TYPE": "0",
    "CLASSIFICATION_TYPE": "U",
    "NORAD_CAT_ID": "58803",
    "ELEMENT_SET_NO": "999",
    "REV_AT_EPOCH": "11847",
    "BSTAR": "-0.00002521352600",
    "MEAN_MOTION_DOT": "-0.00000956",
    "MEAN_MOTION_DDOT": "0.0000000000000",
    "SEMIMAJOR_AXIS": "6861.195",
    "PERIOD": "94.267",
    "APOAPSIS": "484.015",
    "PERIAPSIS": "482.104",
    "OBJECT_TYPE": "PAYLOAD",
    "RCS_SIZE": "LARGE",
    "COUNTRY_CODE": "US",
    "LAUNCH_DATE": "2024-01-15",
    "SITE": "AFETR",
    "DECAY_DATE": null,
    "FILE": "5039972",
    "GP_ID": "313179949",
    "TLE_LINE0": "0 STARLINK-31141",
    "TLE_LINE1": "1 58803U 24012S   26050.64236477 -.00000956  00000-0 -25214-4 0  9995",
    "TLE_LINE2": "2 58803  43.0009 267.3583 0001393 267.1102  92.9591 15.27577041118476"
  },
  {
    "CCSDS_OMM_VERS": "3.0",
    "COMMENT": "GENERATED VIA SPACE-TRACK.ORG API",
    "CREATION_DATE": "2026-02-19T17:59:09",
    "ORIGINATOR": "18 SPCS",
    "OBJECT_NAME": "STARLINK-33904",
    "OBJECT_ID": "2025-094Z",
    "CENTER_NAME": "EARTH",
    "REF_FRAME": "TEME",
    "TIME_SYSTEM": "UTC",
    "MEAN_ELEMENT_THEORY": "SGP4",
    "EPOCH": "2026-02-19T15:24:57.273120",
    "MEAN_MOTION": "14.98336607",
    "ECCENTRICITY": "0.00028388",
    "INCLINATION": "69.9994",
    "RA_OF_ASC_NODE": "279.8075",
    "ARG_OF_PERICENTER": "268.7114",
    "MEAN_ANOMALY": "91.3720",
    "EPHEMERIS_TYPE": "0",
    "CLASSIFICATION_TYPE": "U",
    "NORAD_CAT_ID": "63887",
    "ELEMENT_SET_NO": "999",
    "REV_AT_EPOCH": "4450",
    "BSTAR": "0.00023303867000",
    "MEAN_MOTION_DOT": "0.00002689",
    "MEAN_MOTION_DDOT": "0.0000000000000",
    "SEMIMAJOR_AXIS": "6950.172",
    "PERIOD": "96.107",
    "APOAPSIS": "574.010",
    "PERIAPSIS": "570.064",
    "OBJECT_TYPE": "PAYLOAD",
    "RCS_SIZE": "LARGE",
    "COUNTRY_CODE": "US",
    "LAUNCH_DATE": "2025-05-10",
    "SITE": "AFWTR",
    "DECAY_DATE": null,
    "FILE": "5039972",
    "GP_ID": "313184142",
    "TLE_LINE0": "0 STARLINK-33904",
    "TLE_LINE1": "1 63887U 25094Z   26050.64232955  .00002689  00000-0  23304-3 0  9991",
    "TLE_LINE2": "2 63887  69.9994 279.8075 0002839 268.7114  91.3720 14.98336607 44501"
  },
  {
    "CCSDS_OMM_VERS": "3.0",
    "COMMENT": "GENERATED VIA SPACE-TRACK.ORG API",
    "CREATION_DATE": "2026-02-19T17:59:09",
    "ORIGINATOR": "18 SPCS",
    "OBJECT_NAME": "STARLINK-3831",
    "OBJECT_ID": "2022-045B",
    "CENTER_NAME": "EARTH",
    "REF_FRAME": "TEME",
    "TIME_SYSTEM": "UTC",
    "MEAN_ELEMENT_THEORY": "SGP4",
    "EPOCH": "2026-02-19T15:24:48.622752",
    "MEAN_MOTION": "15.08836802",
    "ECCENTRICITY": "0.00014094",
    "INCLINATION": "53.2176",
    "RA_OF_ASC_NODE": "290.1515",
    "ARG_OF_PERICENTER": "90.3555",
    "MEAN_ANOMALY": "269.7599",
    "EPHEMERIS_TYPE": "0",
    "CLASSIFICATION_TYPE": "U",
    "NORAD_CAT_ID": "52332",
    "ELEMENT_SET_NO": "999",
    "REV_AT_EPOCH": "21291",
    "BSTAR": "0.00007202463600",
    "MEAN_MOTION_DOT": "0.00000858",
    "MEAN_MOTION_DDOT": "0.0000000000000",
    "SEMIMAJOR_AXIS": "6917.890",
    "PERIOD": "95.438",
    "APOAPSIS": "540.730",
    "PERIAPSIS": "538.780",
    "OBJECT_TYPE": "PAYLOAD",
    "RCS_SIZE": "LARGE",
    "COUNTRY_CODE": "US",
    "LAUNCH_DATE": "2022-04-29",
    "SITE": "AFETR",
    "DECAY_DATE": null,
    "FILE": "5039972",
    "GP_ID": "313175073",
    "TLE_LINE0": "0 STARLINK-3831",
    "TLE_LINE1": "1 52332U 22045B   26050.64222943  .00000858  00000-0  72025-4 0  9994",
    "TLE_LINE2": "2 52332  53.2176 290.1515 0001409  90.3555 269.7599 15.08836802212918"
  },
  {
    "CCSDS_OMM_VERS": "3.0",
    "COMMENT": "GENERATED VIA SPACE-TRACK.ORG API",
    "CREATION_DATE": "2026-02-19T17:59:09",
    "ORIGINATOR": "18 SPCS",
    "OBJECT_NAME": "STARLINK-3850",
    "OBJECT_ID": "2022-045M",
    "CENTER_NAME": "EARTH",
    "REF_FRAME": "TEME",
    "TIME_SYSTEM": "UTC",
    "MEAN_ELEMENT_THEORY": "SGP4",
    "EPOCH": "2026-02-19T15:24:46.106784",
    "MEAN_MOTION": "15.08838811",
    "ECCENTRICITY": "0.00014350",
    "INCLINATION": "53.2176",
    "RA_OF_ASC_NODE": "280.2556",
    "ARG_OF_PERICENTER": "91.5840",
    "MEAN_ANOMALY": "268.5316",
    "EPHEMERIS_TYPE": "0",
    "CLASSIFICATION_TYPE": "U",
    "NORAD_CAT_ID": "52342",
    "ELEMENT_SET_NO": "999",
    "REV_AT_EPOCH": "21305",
    "BSTAR": "0.00001622013800",
    "MEAN_MOTION_DOT": "-0.00000030",
    "MEAN_MOTION_DDOT": "0.0000000000000",
    "SEMIMAJOR_AXIS": "6917.884",
    "PERIOD": "95.438",
    "APOAPSIS": "540.742",
    "PERIAPSIS": "538.756",
    "OBJECT_TYPE": "PAYLOAD",
    "RCS_SIZE": "LARGE",
    "COUNTRY_CODE": "US",
    "LAUNCH_DATE": "2022-04-29",
    "SITE": "AFETR",
    "DECAY_DATE": null,
    "FILE": "5039972",
    "GP_ID": "313175577",
    "TLE_LINE0": "0 STARLINK-3850",
    "TLE_LINE1": "1 52342U 22045M   26050.64220031 -.00000030  00000-0  16220-4 0  9999",
    "TLE_LINE2": "2 52342  53.2176 280.2556 0001435  91.5840 268.5316 15.08838811213055"
  }
]